NORAD_CAT_ID,OBJECT_NAME,OBJECT_TYPE,EPOCH,MEAN_MOTION,ECCENTRICITY,INCLINATION,RA_OF_ASC_NODE,ARG_OF_PERICENTER,MEAN_ANOMALY,BSTAR,MEAN_MOTION_DOT,MEAN_MOTION_DDOT,TLE_LINE0,TLE_LINE1,TLE_LINE2,SEMIMAJOR_AXIS,PERIOD,APOGEE,PERIGEE,DECAYED
54168.0,STARLINK-5245,PAYLOAD,2024-02-24 09:33:48,15.08833049,0.0001426,53.2158,105.4655,86.0597,274.0558,8.9156e-05,1.131e-05,0.0,0 STARLINK-5245,1 54168U 22141M   24055.39847770  .00001131  00000-0  89156-4 0  9994,2 54168  53.2158 105.4655 0001426  86.0597 274.0558 15.08833049 73499,6917.902,95.438,540.753,538.78,0.0
54168.0,STARLINK-5245,PAYLOAD,2024-02-24 20:41:30,15.08841469,0.0001475,53.2163,103.3831,88.8268,271.2893,6.6998e-05,7.79e-06,0.0,0 STARLINK-5245,1 54168U 22141M   24055.86215337  .00000779  00000-0  66998-4 0  9990,2 54168  53.2163 103.3831 0001475  88.8268 271.2893 15.08841469 73561,6917.876,95.437,540.761,538.721,0.0
54168.0,STARLINK-5245,PAYLOAD,2024-02-25 09:24:34,15.08848849,0.0001378,53.2163,101.0038,91.4522,268.6628,0.00010488,1.382e-05,0.0,0 STARLINK-5245,1 54168U 22141M   24056.39206679  .00001382  00000-0  10488-3 0  9991,2 54168  53.2163 101.0038 0001378  91.4522 268.6628 15.08848849 73644,6917.853,95.437,540.672,538.765,0.0
54168.0,STARLINK-5245,PAYLOAD,2024-02-26 02:53:49,15.08838126,0.0001497,53.2161,97.7324,97.7362,262.38,0.00010415,1.37e-05,0.0,0 STARLINK-5245,1 54168U 22141M   24057.12071303  .00001370  00000-0  10415-3 0  9994,2 54168  53.2161  97.7324 0001497  97.7362 262.3800 15.08838126 73756,6917.886,95.438,540.787,538.716,0.0
54168.0,STARLINK-5245,PAYLOAD,2024-02-26 09:15:21,15.08843318,0.0001535,53.2166,96.5432,98.6642,261.4524,0.00012192,1.653e-05,0.0,0 STARLINK-5245,1 54168U 22141M   24057.38566952  .00001653  00000-0  12192-3 0  9999,2 54168  53.2166  96.5432 0001535  98.6642 261.4524 15.08843318 73798,6917.87,95.437,540.797,538.673,0.0
54168.0,STARLINK-5245,PAYLOAD,2024-02-27 09:06:09,15.08829463,0.0001626,53.2179,92.0863,92.0946,268.0232,0.00014762,2.061e-05,0.0,0 STARLINK-5245,1 54168U 22141M   24058.37927940  .00002061  00000-0  14762-3 0  9996,2 54168  53.2179  92.0863 0001626  92.0946 268.0232 15.08829463 73948,6917.913,95.438,540.902,538.653,0.0
54168.0,STARLINK-5245,PAYLOAD,2024-02-27 12:16:55,15.08842357,0.0001472,53.2178,91.4893,95.2706,264.8454,2.1872e-05,6e-07,0.0,0 STARLINK-5245,1 54168U 22141M   24058.51175283  .00000060  00000-0  21872-4 0  9995,2 54168  53.2178  91.4893 0001472  95.2706 264.8454 15.08842357 73960,6917.873,95.437,540.756,538.72,0.0
54168.0,STARLINK-5245,PAYLOAD,2024-02-28 02:35:24,15.0883618,0.0001494,53.2173,88.8108,90.8976,269.2187,-3.1556e-07,-2.93e-06,0.0,0 STARLINK-5245,1 54168U 22141M   24059.10791894 -.00000293  00000-0 -31556-6 0  9995,2 54168  53.2173  88.8108 0001494  90.8976 269.2187 15.08836180 74058,6917.892,95.438,540.791,538.724,0.0
54168.0,STARLINK-5245,PAYLOAD,2024-02-28 08:56:56,15.08839632,0.0001507,53.2174,87.6242,91.9254,268.1911,5.0114e-05,5.1e-06,0.0,0 STARLINK-5245,1 54168U 22141M   24059.37287594  .00000510  00000-0  50114-4 0  9990,2 54168  53.2174  87.6242 0001507  91.9254 268.1911 15.08839632 74093,6917.882,95.438,540.789,538.704,0.0
54168.0,STARLINK-5245,PAYLOAD,2024-02-28 18:29:15,15.08836389,0.0001537,53.2173,85.8399,91.8115,268.3053,5.5516e-05,5.96e-06,0.0,0 STARLINK-5245,1 54168U 22141M   24059.77031813  .00000596  00000-0  55516-4 0  9990,2 54168  53.2173  85.8399 0001537  91.8115 268.3053 15.08836389 74155,6917.891,95.438,540.82,538.693,0.0
54168.0,STARLINK-5245,PAYLOAD,2024-02-29 10:23:07,15.08834704,0.0001576,53.2177,82.8666,93.3891,266.7282,3.975e-05,3.45e-06,0.0,0 STARLINK-5245,1 54168U 22141M   24060.43272307  .00000345  00000-0  39750-4 0  9994,2 54168  53.2177  82.8666 0001576  93.3891 266.7282 15.08834704 74250,6917.897,95.438,540.852,538.671,0.0
54168.0,STARLINK-5245,PAYLOAD,2024-02-29 18:20:03,15.0883416,0.0001595,53.2178,81.3797,92.6707,267.4468,3.4365e-07,-2.83e-06,0.0,0 STARLINK-5245,1 54168U 22141M   24060.76392554 -.00000283  00000-0  34365-6 0  9998,2 54168  53.2178  81.3797 0001595  92.6707 267.4468 15.08834160 74305,6917.898,95.438,540.867,538.66,0.0
54168.0,STARLINK-5245,PAYLOAD,2024-03-01 10:13:54,15.08838478,0.0001528,53.2169,78.4048,90.8448,269.2719,3.3151e-05,2.4e-06,0.0,0 STARLINK-5245,1 54168U 22141M   24061.42632448  .00000240  00000-0  33151-4 0  9993,2 54168  53.2169  78.4048 0001528  90.8448 269.2719 15.08838478 74405,6917.885,95.438,540.807,538.693,0.0
54168.0,STARLINK-5245,PAYLOAD,2024-03-01 18:10:50,15.08838282,0.000152,53.217,76.9172,87.0975,273.0191,4.4735e-05,4.24e-06,0.0,0 STARLINK-5245,1 54168U 22141M   24061.75752480  .00000424  00000-0  44735-4 0  9992,2 54168  53.2170  76.9172 0001520  87.0975 273.0191 15.08838282 74458,6917.886,95.438,540.802,538.699,0.0
54168.0,STARLINK-5245,PAYLOAD,2024-03-02 08:29:18,15.0884388,0.0001556,53.2171,74.2409,84.8326,275.2844,0.00011515,1.545e-05,0.0,0 STARLINK-5245,1 54168U 22141M   24062.35368066  .00001545  00000-0  11515-3 0  9996,2 54168  53.2171  74.2409 0001556  84.8326 275.2844 15.08843880 74546,6917.869,95.437,540.81,538.657,0.0
54168.0,STARLINK-5245,PAYLOAD,2024-03-02 18:01:36,15.08843317,0.0001535,53.2174,72.4572,88.0765,272.0403,0.00011969,1.618e-05,0.0,0 STARLINK-5245,1 54168U 22141M   24062.75112043  .00001618  00000-0  11969-3 0  9996,2 54168  53.2174  72.4572 0001535  88.0765 272.0403 15.08843317 74608,6917.87,95.437,540.797,538.673,0.0
54168.0,STARLINK-5245,PAYLOAD,2024-03-03 00:23:09,15.08840627,0.0001576,53.2166,71.2694,86.2323,273.8849,8.3199e-05,1.036e-05,0.0,0 STARLINK-5245,1 54168U 22141M   24063.01608344  .00001036  00000-0  83199-4 0  9999,2 54168  53.2166  71.2694 0001576  86.2323 273.8849 15.08840627 74644,6917.878,95.438,540.834,538.653,0.0
54168.0,STARLINK-5245,PAYLOAD,2024-03-03 06:44:42,15.08840227,0.0001364,53.2162,70.0779,93.6045,266.5103,0.0001305,1.79e-05,0.0,0 STARLINK-5245,1 54168U 22141M   24063.28104190  .00001790  00000-0  13050-3 0  9993,2 54168  53.2162  70.0779 0001364  93.6045 266.5103 15.08840227 74681,6917.88,95.438,540.688,538.801,0.0
54168.0,STARLINK-5245,PAYLOAD,2024-03-04 05:00:05,15.08843759,0.0001634,53.218,65.9159,99.8274,260.2903,4.1009e-05,3.65e-06,0.0,0 STARLINK-5245,1 54168U 22141M   24064.20840221  .00000365  00000-0  41009-4 0  9991,2 54168  53.2180  65.9159 0001634  99.8274 260.2903 15.08843759 74826,6917.869,95.437,540.864,538.604,0.0
54168.0,STARLINK-5245,PAYLOAD,2024-03-04 06:35:29,15.08844731,0.0001644,53.2183,65.6202,87.0969,273.0211,2.123e-05,5e-07,0.0,0 STARLINK-5245,1 54168U 22141M   24064.27464303  .00000050  00000-0  21230-4 0  9996,2 54168  53.2183  65.6202 0001644  87.0969 273.0211 15.08844731 74832,6917.866,95.437,540.868,538.594,0.0
54168.0,STARLINK-5245,PAYLOAD,2024-03-05 03:15:30,15.08830767,0.000125,53.2176,61.7511,96.4114,263.702,6.773e-05,7.9e-06,0.0,0 STARLINK-5245,1 54168U 22141M   24065.13576913  .00000790  00000-0  67730-4 0  9999,2 54168  53.2176  61.7511 0001250  96.4114 263.7020 15.08830767 74965,6917.909,95.438,540.638,538.909,0.0
54168.0,STARLINK-5245,PAYLOAD,2024-03-05 09:37:02,15.08841242,0.0001502,53.2174,60.5607,98.0763,262.04,-1.7535e-05,-5.67e-06,0.0,0 STARLINK-5245,1 54168U 22141M   24065.40072506 -.00000567  00000-0 -17535-4 0  9990,2 54168  53.2174  60.5607 0001502  98.0763 262.0400 15.08841242 75004,6917.877,95.437,540.781,538.703,0.0
54168.0,STARLINK-5245,PAYLOAD,2024-03-06 06:17:03,15.08826678,8.57e-05,53.2185,56.699,94.469,265.64,0.00023229,3.41e-05,0.0,0 STARLINK-5245,1 54168U 22141M   24066.26184976  .00003410  00000-0  23229-3 0  9994,2 54168  53.2185  56.6990 0000857  94.4690 265.6400 15.08826678 75137,6917.921,95.438,540.379,539.193,0.0
54168.0,STARLINK-5245,PAYLOAD,2024-03-07 04:32:27,15.08836376,0.0001467,53.2186,52.5366,109.4296,250.6855,4.5054e-05,4.29e-06,0.0,0 STARLINK-5245,1 54168U 22141M   24067.18921166  .00000429  00000-0  45054-4 0  9994,2 54168  53.2186  52.5366 0001467 109.4296 250.6855 15.08836376 75276,6917.891,95.438,540.771,538.742,0.0
54168.0,STARLINK-5245,PAYLOAD,2024-03-08 02:47:51,15.0883917,0.000137,53.2188,48.3713,98.3192,261.7956,4.6562e-05,4.53e-06,0.0,0 STARLINK-5245,1 54168U 22141M   24068.11657208  .00000453  00000-0  46562-4 0  9993,2 54168  53.2188  48.3713 0001370  98.3192 261.7956 15.08839170 75417,6917.883,95.438,540.696,538.8,0.0
54168.0,STARLINK-5245,PAYLOAD,2024-03-08 05:58:37,15.08842778,0.0001419,53.2189,47.7772,95.7003,264.4151,7.1626e-05,8.52e-06,0.0,0 STARLINK-5245,1 54168U 22141M   24068.24904953  .00000852  00000-0  71626-4 0  9991,2 54168  53.2189  47.7772 0001419  95.7003 264.4151 15.08842778 75439,6917.872,95.437,540.719,538.755,0.0
54168.0,STARLINK-5245,PAYLOAD,2024-03-08 21:52:29,15.08837608,0.0001438,53.219,44.8035,93.74,266.3756,8.8493e-05,1.121e-05,0.0,0 STARLINK-5245,1 54168U 22141M   24068.91145175  .00001121  00000-0  88493-4 0  9998,2 54168  53.2190  44.8035 0001438  93.7400 266.3756 15.08837608 75530,6917.888,95.438,540.747,538.758,0.0
54168.0,STARLINK-5245,PAYLOAD,2024-03-09 04:14:01,15.08843118,0.0001264,53.2175,43.613,92.2577,267.856,6.8972e-05,8.1e-06,0.0,0 STARLINK-5245,1 54168U 22141M   24069.17640902  .00000810  00000-0  68972-4 0  9999,2 54168  53.2175  43.6130 0001264  92.2577 267.8560 15.08843118 75578,6917.871,95.437,540.61,538.861,0.0
54168.0,STARLINK-5245,PAYLOAD,2024-03-09 07:24:47,15.08846148,0.000136,53.2181,43.0172,86.1925,273.9223,0.00017574,2.511e-05,0.0,0 STARLINK-5245,1 54168U 22141M   24069.30888461  .00002511  00000-0  17574-3 0  9999,2 54168  53.2181  43.0172 0001360  86.1925 273.9223 15.08846148 75593,6917.862,95.437,540.667,538.786,0.0
54168.0,STARLINK-5245,PAYLOAD,2024-03-10 04:04:48,15.08845174,0.0001325,53.2176,39.1497,93.0186,267.0958,2.9483e-05,1.81e-06,0.0,0 STARLINK-5245,1 54168U 22141M   24070.17000702  .00000181  00000-0  29483-4 0  9994,2 54168  53.2176  39.1497 0001325  93.0186 267.0958 15.08845174 75722,6917.865,95.437,540.646,538.813,0.0
